NORAD_CAT_ID,OBJECT_NAME,OBJECT_TYPE,EPOCH,MEAN_MOTION,ECCENTRICITY,INCLINATION,RA_OF_ASC_NODE,ARG_OF_PERICENTER,MEAN_ANOMALY,BSTAR,MEAN_MOTION_DOT,MEAN_MOTION_DDOT,TLE_LINE0,TLE_LINE1,TLE_LINE2,SEMIMAJOR_AXIS,PERIOD,APOGEE,PERIGEE,DECAYED
53532.0,STARLINK-4483,PAYLOAD,2023-03-15 00:37:58,15.08866409,0.000101,53.2149,290.3007,88.8056,271.3051,0.0012121,0.00019069,0.0,0 STARLINK-4483,1 53532U 22101F   23074.02636932  .00019069  00000-0  12121-2 0  9995,2 53532  53.2149 290.3007 0001010  88.8056 271.3051 15.08866409 31518,6917.8,95.436,540.363,538.966,0.0
53532.0,STARLINK-4483,PAYLOAD,2023-03-16 00:28:45,15.08854011,0.0002051,53.2173,285.8387,85.4136,274.7091,0.00070127,0.00010895,0.0,0 STARLINK-4483,1 53532U 22101F   23075.01997152  .00010895  00000-0  70127-3 0  9998,2 53532  53.2173 285.8387 0002051  85.4136 274.7091 15.08854011 31666,6917.838,95.437,541.121,538.284,0.0
53532.0,STARLINK-4483,PAYLOAD,2023-03-16 21:08:46,15.08827823,0.0001036,53.2116,281.9726,127.1207,232.9879,0.00049581,7.609e-05,0.0,0 STARLINK-4483,1 53532U 22101F   23075.88109691  .00007609  00000-0  49581-3 0  9995,2 53532  53.2116 281.9726 0001036 127.1207 232.9879 15.08827823 31797,6917.918,95.438,540.499,539.066,0.0
53532.0,STARLINK-4483,PAYLOAD,2023-03-17 00:19:33,15.0882625,0.0001145,53.2116,281.3792,99.7719,260.3402,-0.00013939,-2.505e-05,0.0,0 STARLINK-4483,1 53532U 22101F   23076.01357904 -.00002505  00000-0 -13939-3 0  9993,2 53532  53.2116 281.3792 0001145  99.7719 260.3402 15.08826250 31810,6917.922,95.438,540.58,538.995,0.0
53532.0,STARLINK-4483,PAYLOAD,2023-03-17 20:59:33,15.08856523,0.0001256,53.2148,277.5134,81.6267,278.4867,4.4015e-05,4.13e-06,0.0,0 STARLINK-4483,1 53532U 22101F   23076.87468973  .00000413  00000-0  44015-4 0  9990,2 53532  53.2148 277.5134 0001256  81.6267 278.4867 15.08856523 31948,6917.83,95.437,540.564,538.826,0.0
53532.0,STARLINK-4483,PAYLOAD,2023-03-18 12:53:25,15.08843677,0.0001639,53.2132,274.5403,79.2385,280.8792,0.00029955,4.483e-05,0.0,0 STARLINK-4483,1 53532U 22101F   23077.53709798  .00004483  00000-0  29955-3 0  9993,2 53532  53.2132 274.5403 0001639  79.2385 280.8792 15.08843677 32048,6917.869,95.437,540.868,538.6,0.0
53532.0,STARLINK-4483,PAYLOAD,2023-03-18 19:14:57,15.08844863,0.0001318,53.2133,273.3515,77.3038,282.8101,9.0791e-05,1.158e-05,0.0,0 STARLINK-4483,1 53532U 22101F   23077.80205508  .00001158  00000-0  90791-4 0  9996,2 53532  53.2133 273.3515 0001318  77.3038 282.8101 15.08844863 32086,6917.866,95.437,540.642,538.819,0.0
53532.0,STARLINK-4483,PAYLOAD,2023-03-19 12:44:11,15.08844608,0.0001515,53.2139,270.0781,93.5037,266.6128,8.4288e-05,1.054e-05,0.0,0 STARLINK-4483,1 53532U 22101F   23078.53069429  .00001054  00000-0  84288-4 0  9996,2 53532  53.2139 270.0781 0001515  93.5037 266.6128 15.08844608 32197,6917.866,95.437,540.779,538.683,0.0
53532.0,STARLINK-4483,PAYLOAD,2023-03-19 19:05:44,15.08846993,0.00015,53.2129,268.8891,87.8162,272.3002,0.00016297,2.307e-05,0.0,0 STARLINK-4483,1 53532U 22101F   23078.79565226  .00002307  00000-0  16297-3 0  9996,2 53532  53.2129 268.8891 0001500  87.8162 272.3002 15.08846993 32231,6917.859,95.437,540.762,538.686,0.0
53532.0,STARLINK-4483,PAYLOAD,2023-03-19 22:16:30,15.08849655,0.0001441,53.2137,268.2948,85.0541,275.0615,0.00011882,1.604e-05,0.0,0 STARLINK-4483,1 53532U 22101F   23078.92813071  .00001604  00000-0  11882-3 0  9999,2 53532  53.2137 268.2948 0001441  85.0541 275.0615 15.08849655 32252,6917.851,95.437,540.713,538.719,0.0
53532.0,STARLINK-4483,PAYLOAD,2023-03-20 15:45:45,15.08839932,0.0001407,53.213,265.0239,87.0893,273.026,9.0456e-05,1.152e-05,0.0,0 STARLINK-4483,1 53532U 22101F   23079.65677537  .00001152  00000-0  90456-4 0  9998,2 53532  53.2130 265.0239 0001407  87.0893 273.0260 15.08839932 32360,6917.881,95.438,540.719,538.772,0.0
53532.0,STARLINK-4483,PAYLOAD,2023-03-20 18:56:31,15.08843565,0.0001404,53.2143,264.4276,90.6651,269.4502,6.8433e-05,8.01e-06,0.0,0 STARLINK-4483,1 53532U 22101F   23079.78925371  .00000801  00000-0  68433-4 0  9994,2 53532  53.2143 264.4276 0001404  90.6651 269.4502 15.08843565 32384,6917.869,95.437,540.706,538.763,0.0
53532.0,STARLINK-4483,PAYLOAD,2023-03-20 22:07:17,15.08847237,0.0001429,53.2143,263.8314,95.0632,265.0523,0.0001212,1.642e-05,0.0,0 STARLINK-4483,1 53532U 22101F   23079.92173134  .00001642  00000-0  12120-3 0  9997,2 53532  53.2143 263.8314 0001429  95.0632 265.0523 15.08847237 32403,6917.858,95.437,540.712,538.735,0.0
53532.0,STARLINK-4483,PAYLOAD,2023-03-22 12:16:32,15.08843769,7.88e-05,53.2147,256.6964,67.3843,292.7233,7.9378e-05,9.76e-06,0.0,0 STARLINK-4483,1 53532U 22101F   23081.51149220  .00000976  00000-0  79378-4 0  9992,2 53532  53.2147 256.6964 0000788  67.3843 292.7233 15.08843769 32648,6917.869,95.437,540.279,539.189,0.0
53532.0,STARLINK-4483,PAYLOAD,2023-03-22 17:02:42,15.08844709,0.0001312,53.214,255.8016,100.1451,259.969,8.652e-05,1.089e-05,0.0,0 STARLINK-4483,1 53532U 22101F   23081.71021037  .00001089  00000-0  86520-4 0  9992,2 53532  53.2140 255.8016 0001312 100.1451 259.9690 15.08844709 32675,6917.866,95.437,540.639,538.823,0.0
53532.0,STARLINK-4483,PAYLOAD,2023-03-23 04:10:24,15.08829055,0.0001394,53.2138,253.7232,74.1723,285.9422,-0.00024566,-4.194e-05,0.0,0 STARLINK-4483,1 53532U 22101F   23082.17389407 -.00004194  00000-0 -24566-3 0  9994,2 53532  53.2138 253.7232 0001394  74.1723 285.9422 15.08829055 32748,6917.914,95.438,540.743,538.814,0.0
53532.0,STARLINK-4483,PAYLOAD,2023-03-23 13:42:43,15.08838388,0.0001195,53.2143,251.9375,94.6236,265.4893,9.509e-05,1.226e-05,0.0,0 STARLINK-4483,1 53532U 22101F   23082.57133549  .00001226  00000-0  95090-4 0  9994,2 53532  53.2143 251.9375 0001195  94.6236 265.4893 15.08838388 32808,6917.885,95.438,540.577,538.924,0.0
53532.0,STARLINK-4483,PAYLOAD,2023-03-23 20:04:15,15.08858724,0.0001126,53.2145,250.749,91.8904,268.2217,0.00078354,0.0001221,0.0,0 STARLINK-4483,1 53532U 22101F   23082.83628976  .00012210  00000-0  78354-3 0  9994,2 53532  53.2145 250.7490 0001126  91.8904 268.2217 15.08858724 32841,6917.823,95.436,540.467,538.909,0.0
53532.0,STARLINK-4483,PAYLOAD,2023-03-24 04:01:11,15.08897155,0.0001097,53.2146,249.2622,83.3293,276.7824,0.0051298,0.00082438,0.0,0 STARLINK-4483,1 53532U 22101F   23083.16749219  .00082438  00000-0  51298-2 0  9991,2 53532  53.2146 249.2622 0001097  83.3293 276.7824 15.08897155 32890,6917.706,95.434,540.33,538.812,0.0
53532.0,STARLINK-4483,PAYLOAD,2023-03-24 11:58:06,15.08892454,0.0001202,53.2145,247.775,87.9242,272.1888,0.0024365,0.00038758,0.0,0 STARLINK-4483,1 53532U 22101F   23083.49868113  .00038758  00000-0  24365-2 0  9993,2 53532  53.2145 247.7750 0001202  87.9242 272.1888 15.08892454 32949,6917.72,95.434,540.417,538.754,0.0
53532.0,STARLINK-4483,PAYLOAD,2023-03-24 13:33:28,15.08899239,0.0001196,53.2145,247.4778,87.8008,272.3122,0.0026909,0.00042868,0.0,0 STARLINK-4483,1 53532U 22101F   23083.56491875  .00042868  00000-0  26909-2 0  9991,2 53532  53.2145 247.4778 0001196  87.8008 272.3122 15.08899239 32959,6917.699,95.434,540.392,538.737,0.0
53532.0,STARLINK-4483,PAYLOAD,2023-03-24 21:30:23,15.08913609,0.0001251,53.2145,245.991,86.0024,274.1111,0.0022876,0.00036381,0.0,0 STARLINK-4483,1 53532U 22101F   23083.89610539  .00036381  00000-0  22876-2 0  9999,2 53532  53.2145 245.9910 0001251  86.0024 274.1111 15.08913609 33004,6917.655,95.433,540.386,538.655,0.0
53532.0,STARLINK-4483,PAYLOAD,2023-03-25 02:16:33,15.0882084,0.0002069,53.2145,245.0994,61.2575,298.8625,-0.0030106,-0.0004786,0.0,0 STARLINK-4483,1 53532U 22101F   23084.09483578 -.00047860  00000-0 -30106-2 0  9994,2 53532  53.2145 245.0994 0002069  61.2575 298.8625 15.08820840 33031,6917.939,95.439,541.235,538.373,0.0
53532.0,STARLINK-4483,PAYLOAD,2023-03-25 11:48:53,15.08807903,0.0001257,53.2142,243.3146,107.7587,252.3543,-0.00080372,-0.00013045,0.0,0 STARLINK-4483,1 53532U 22101F   23084.49228090 -.00013045  00000-0 -80372-3 0  9993,2 53532  53.2142 243.3146 0001257 107.7587 252.3543 15.08807903 33090,6917.978,95.44,540.713,538.974,0.0
53532.0,STARLINK-4483,PAYLOAD,2023-03-25 21:21:13,15.08808737,0.0001301,53.2143,241.5307,112.4292,247.6838,0.0019567,0.00030963,0.0,0 STARLINK-4483,1 53532U 22101F   23084.88973498  .00030963  00000-0  19567-2 0  9998,2 53532  53.2143 241.5307 0001301 112.4292 247.6838 15.08808737 33153,6917.976,95.44,540.741,538.941,0.0
53532.0,STARLINK-4483,PAYLOAD,2023-03-26 11:39:42,15.08825041,0.0001202,53.2145,238.8547,105.8471,254.2654,0.001725,0.00027261,0.0,0 STARLINK-4483,1 53532U 22101F   23085.48590800  .00027261  00000-0  17250-2 0  9991,2 53532  53.2145 238.8547 0001202 105.8471 254.2654 15.08825041 33242,6917.926,95.439,540.623,538.96,0.0
53532.0,STARLINK-4483,PAYLOAD,2023-03-26 21:12:01,15.08846397,0.0001183,53.2144,237.0704,103.7187,256.3936,0.0019872,0.00031485,0.0,0 STARLINK-4483,1 53532U 22101F   23085.88334900  .00031485  00000-0  19872-2 0  9997,2 53532  53.2144 237.0704 0001183 103.7187 256.3936 15.08846397 33306,6917.861,95.437,540.544,538.907,0.0
53532.0,STARLINK-4483,PAYLOAD,2023-03-27 03:33:33,15.08845693,0.000124,53.2146,235.8814,84.9324,275.181,0.0011769,0.00018495,0.0,0 STARLINK-4483,1 53532U 22101F   23086.14830980  .00018495  00000-0  11769-2 0  9999,2 53532  53.2146 235.8814 0001240  84.9324 275.1810 15.08845693 33345,6917.863,95.437,540.586,538.87,0.0
53532.0,STARLINK-4483,PAYLOAD,2023-03-27 13:05:52,15.08871738,0.0001093,53.2148,234.0971,100.5391,259.5725,0.0014515,0.00022908,0.0,0 STARLINK-4483,1 53532U 22101F   23086.54574124  .00022908  00000-0  14515-2 0  9994,2 53532  53.2148 234.0971 0001093 100.5391 259.5725 15.08871738 33404,6917.783,95.436,540.404,538.892,0.0
53532.0,STARLINK-4483,PAYLOAD,2023-03-27 14:41:14,15.08885171,0.0001326,53.2148,233.7996,112.773,247.3402,0.0019431,0.0003081,0.0,0 STARLINK-4483,1 53532U 22101F   23086.61197902  .00030810  00000-0  19431-2 0  9990,2 53532  53.2148 233.7996 0001326 112.7730 247.3402 15.08885171 33412,6917.742,95.435,540.525,538.69,0.0
